[{"URL":"http://www.just-eat.co.uk/restaurants-cn-chinese-cardiff/menu","_id":{"$oid":"55f14312c7447c3da7051b26"},"address":"228 City Road","address line 2":"Cardiff","name":".CN Chinese","outcode":"CF24","postcode":"3JH","rating":5,"type_of_food":"Chinese","image":"restaurantsImage/1.jpg"},

 {"URL":"http://www.just-eat.co.uk/restaurants-atthai-ss9/menu","_id":{"$oid":"55f14312c7447c3da7051b27"},"address":"376 Rayleigh Road","address line 2":"Essex","name":"@ Thai","outcode":"SS9","postcode":"5PT","rating":5.5,"type_of_food":"Thai","image":"restaurantsImage/2.jpg"},

  {"URL":"http://www.just-eat.co.uk/restaurants-atthairestaurant/menu","_id":{"$oid":"55f14312c7447c3da7051b28"},"address":"30 Greyhound Road Hammersmith","address line 2":"London","name":"@ Thai Restaurant","outcode":"W6","postcode":"8NX","rating":4.5,"type_of_food":"Thai","image":"restaurantsImage/3.jpg"},

 {"URL":"http://www.just-eat.co.uk/restaurants-indiancom-ch4/menu","_id":{"$oid":"55f14312c7447c3da7051b2a"},"address":"9 Broughton Hall Road","address line 2":"Broughton","name":"@Indian.com","outcode":"CH4","postcode":"0QR","rating":6,"type_of_food":"Curry","image":"restaurantsImage/4.jpg"},

 {"URL":"http://www.just-eat.co.uk/restaurants-007takeaway-s65/menu","_id":{"$oid":"55f14312c7447c3da7051b2b"},"address":"6 Drummond Street","address line 2":"Rotherham","name":"007 Takeaway","outcode":"S65","postcode":"1HY","rating":6,"type_of_food":"Pizza","image":"restaurantsImage/5.jpg"},

 {"URL":"http://www.just-eat.co.uk/restaurants-042-restaurant-e11/menu","_id":{"$oid":"55f14312c7447c3da7051b2c"},"address":"885 High Road Leytonstone","address line 2":"London","name":"042 Restaurant \u0026 Bar","outcode":"E11","postcode":"1HR","rating":3,"type_of_food":"African","image":"restaurantsImage/6.jpg"},

 {"URL":"http://www.just-eat.co.uk/restaurants-042-restaurant-e11/menu","_id":{"$oid":"55f14312c7447c3da7051b2d"},"address":"885 High Road Leytonstone","address line 2":"London","name":"042 Restaurant \u0026 Bar","outcode":"E11","postcode":"1HR","rating":3,"type_of_food":"African","image":"restaurantsImage/7.jpg"},

 {"URL":"http://www.just-eat.co.uk/restaurants-042-restaurant-e11/menu","_id":{"$oid":"55f14312c7447c3da7051b2e"},"address":"885 High Road Leytonstone","address line 2":"London","name":"042 Restaurant \u0026 Bar","outcode":"E11","postcode":"1HR","rating":3,"type_of_food":"African","image":"restaurantsImage/8.jpg"},

 {"URL":"http://www.just-eat.co.uk/restaurants-1-2-3-chinese-rowlands-gill/menu","_id":{"$oid":"55f14312c7447c3da7051b2f"},"address":"Unit 4 Spencer House","address line 2":"Swalwell","name":"1 2 3 Chinese","outcode":"NE16","postcode":"3DS","rating":4.5,"type_of_food":"Chinese","image":"restaurantsImage/9.jpg"},

 {"URL":"http://www.just-eat.co.uk/restaurants-1-2-3-chinese-rowlands-gill/menu","_id":{"$oid":"55f14312c7447c3da7051b30"},"address":"Unit 4 Spencer House","address line 2":"Swalwell","name":"1 2 3 Chinese","outcode":"NE16","postcode":"3DS","rating":4.5,"type_of_food":"Chinese","image":"restaurantsImage/10.jpg"},

 {"URL":"http://www.just-eat.co.uk/restaurants-1-2-3-chinese-rowlands-gill/menu","_id":{"$oid":"55f14312c7447c3da7051b31"},"address":"67 Park Street","address line 2":"Treforest","name":"100 Degrees Chinese Restaurant","outcode":"CF37","postcode":"1SN","rating":5,"type_of_food":"Chinese","image":"restaurantsImage/11.jpg"},

 {"URL":"http://www.just-eat.co.uk/restaurants-100menu-wn1/menu","_id":{"$oid":"55f14312c7447c3da7051b32"},"address":"50 Wallgate","address line 2":"Wigan","name":"100 Menu","outcode":"WN1","postcode":"1JU","rating":5,"type_of_food":"Chinese","image":"restaurantsImage/12.jpg"},

 {"URL":"http://www.just-eat.co.uk/restaurants-104-turkish-BBQ/menu","_id":{"$oid":"55f14312c7447c3da7051b33"},"address":"104 Tanners Lane","address line 2":"Essex","name":"104 Turkish BBQ","outcode":"IG6","postcode":"1QE","rating":5,"type_of_food":"Turkish","image":"restaurantsImage/13.jpg"},

 {"URL":"http://www.just-eat.co.uk/restaurants-109restaurant-w2/menu","_id":{"$oid":"55f14312c7447c3da7051b34"},"address":"109 Westbourne Park Road","address line 2":"London","name":"109 Ristorante","outcode":"W2","postcode":"5QL","rating":5,"type_of_food":"Pizza","image":"restaurantsImage/14.jpg"},

 {"URL":"http://www.just-eat.co.uk/restaurants-113-fish-bar-wallasey/menu","_id":{"$oid":"55f14312c7447c3da7051b35"},"address":"113 Poulton Road","address line 2":"Merseyside","name":"113 Fish Bar","outcode":"CH44","postcode":"9DE","rating":5.5,"type_of_food":"Chinese","image":"restaurantsImage/15.jpg"},

 {"URL":"http://www.just-eat.co.uk/restaurants-133-takeaway-irvine/menu","_id":{"$oid":"55f14312c7447c3da7051b36"},"address":"133 Fullarton Street","address line 2":"Irvine","name":"133 Takeaway","outcode":"KA12","postcode":"8DG","rating":"Not yet rated","type_of_food":"Breakfast","image":"restaurantsImage/16.jpg"},

 {"URL":"http://www.just-eat.co.uk/restaurants-1498thespiceaffair-pe11/menu","_id":{"$oid":"55f14312c7447c3da7051b37"},"address":"Red Lion Hotel","address line 2":"Spalding","name":"1498 The Spice Affair","outcode":"PE11","postcode":"1SU","rating":5.5,"type_of_food":"Curry","image":"restaurantsImage/17.jpg"},

 {"URL":"http://www.just-eat.co.uk/restaurants-168chinese-ls18/menu","_id":{"$oid":"55f14312c7447c3da7051b38"},"address":"17 Alexandra Road","address line 2":"West Yorkshire","name":"168 Chinese \u0026 Cantonese Takeaway","outcode":"LS18","postcode":"4HE","rating":5.5,"type_of_food":"Chinese","image":"restaurantsImage/18.jpg"},

 {"URL":"http://www.just-eat.co.uk/restaurants-1awok-pa7/menu","_id":{"$oid":"55f14312c7447c3da7051b39"},"address":"Unit 2 30 Greenock Road","address line 2":"Bishopton","name":"1A Wok","outcode":"PA7","postcode":"5JN","rating":5,"type_of_food":"Chinese","image":"restaurantsImage/19.jpg"}
 ]